0 COSMOS 2251 DEB
1 34413U 93036RE  13282.39303209  .00002199  00000-0  11539-2 0   567
2 34413 074.0318 265.8492 0121889 318.0234 195.1913 14.11042982241587
0 COSMOS 2251 DEB
1 34413U 93036RE  13283.66160076  .00002131  00000-0  11183-2 0   573
2 34413 074.0319 263.6122 0121831 315.5604 159.1347 14.11048299241762
0 COSMOS 2251 DEB
1 34413U 93036RE  13285.98938390  .00002470  00000-0  12943-2 0   595
2 34413 074.0319 259.5096 0121797 310.9140 103.7735 14.11056724242096
0 COSMOS 2251 DEB
1 34413U 93036RE  13287.35548567  .00002771  00000-0  14501-2 0   609
2 34413 074.0321 257.1003 0121744 308.2200 203.2876 14.11062023242282
0 COSMOS 2251 DEB
1 34413U 93036RE  13288.96702105  .00003254  00000-0  17002-2 0   614
2 34413 074.0328 254.2586 0121660 305.0321 109.6077 14.11073649242513
0 COSMOS 2251 DEB
1 34413U 93036RE  13290.33352022  .00003104  00000-0  16221-2 0   624
2 34413 074.0332 251.8487 0121589 302.3507 211.2103 14.11081224242706
0 COSMOS 2251 DEB
1 34413U 93036RE  13291.94465333  .00002811  00000-0  14706-2 0   633
2 34413 074.0337 249.0075 0121479 299.2057 115.5467 14.11089239242933
0 COSMOS 2251 DEB
1 34413U 93036RE  13293.09396296  .00003130  00000-0  16356-2 0   641
2 34413 074.0343 246.9817 0121371 296.9268 193.9525 14.11094859243096
0 COSMOS 2251 DEB
1 34413U 93036RE  13294.30366208  .00003385  00000-0  17678-2 0   657
2 34413 074.0340 244.8491 0121304 294.5295 219.1558 14.11102017243260
0 COSMOS 2251 DEB
1 34413U 93036RE  13295.83762635  .00003085  00000-0  16124-2 0   663
2 34413 074.0338 242.1444 0121177 291.5099 091.6257 14.11111018243487
